[{"OBJECT_NAME":"STARLINK-3863","OBJECT_ID":"2022-049Q","EPOCH":"2026-03-09T22:20:28.721472","MEAN_MOTION":15.08837328,"ECCENTRICITY":0.00013682,"INCLINATION":53.2178,"RA_OF_ASC_NODE":48.0387,"ARG_OF_PERICENTER":86.6812,"MEAN_ANOMALY":273.4337,"EPHEMERIS_TYPE":0,"CLASSIFICATION_TYPE":"U","NORAD_CAT_ID":52465,"ELEMENT_SET_NO":999,"REV_AT_EPOCH":21242,"BSTAR":5.707138e-5,"MEAN_MOTION_DOT":6.2e-6,"MEAN_MOTION_DDOT":0},{"OBJECT_NAME":"CSC-1","OBJECT_ID":"2023-155G","EPOCH":"2026-03-09T17:46:02.342496","MEAN_MOTION":15.1003596,"ECCENTRICITY":0.00075041,"INCLINATION":97.5446,"RA_OF_ASC_NODE":139.7305,"ARG_OF_PERICENTER":212.9992,"MEAN_ANOMALY":147.077,"EPHEMERIS_TYPE":0,"CLASSIFICATION_TYPE":"U","NORAD_CAT_ID":58022,"ELEMENT_SET_NO":999,"REV_AT_EPOCH":13272,"BSTAR":0.00054556609,"MEAN_MOTION_DOT":8.819e-5,"MEAN_MOTION_DDOT":0}]
